BEIDOU-2 M4             
1 38251U 12018B   26140.19912060 -.00000057  00000+0  00000+0 0  9993
2 38251  55.6827 305.0343 0011032 279.8130  80.0393  1.86229401 95425
ARIRANG-3 (KOMPSAT-3)   
1 38338U 12025B   26141.75512345  .00000261  00000+0  61083-4 0  9991
2 38338  98.1157  99.6745 0005052 182.8158 177.3016 14.62179318747480
METOP-B                 
1 38771U 12049A   26141.72241458  .00000059  00000+0  46994-4 0  9998
2 38771  98.6521 193.7472 0003407  75.7035 284.4520 14.21424484709503
SJ-9A                   
1 38860U 12056A   26141.69149564  .00000801  00000+0  98598-4 0  9998
2 38860  97.6694 114.6058 0025236 348.2926  11.7699 14.85411698695656
COSMOS 2484 (RODNIK-S 6)
1 39059U 13001C   26141.74416404 -.00000016  00000+0 -18667-3 0  9994
2 39059  82.5028 238.3303 0027547  92.3829 268.0405 12.42938130605271
SARAL                   
1 39086U 13009A   26141.71468308  .00000041  00000+0  30943-4 0  9997
2 39086  98.5560 328.6174 0002231  35.8270 324.3064 14.32848619691818
STRAND-1                
1 39090U 13009E   26141.46034243  .00000158  00000+0  67402-4 0  9990
2 39090  98.3916 322.3538 0007711 317.1880  42.8706 14.37145301693227
BRITE-AUSTRIA           
1 39091U 13009F   26141.46172997  .00000105  00000+0  50168-4 0  9993
2 39091  98.3989 321.5600 0009416 325.9302  34.1279 14.36530086693214
GAOFEN-1                
1 39150U 13018A   26141.76923097  .00000746  00000+0  11406-3 0  9999
2 39150  97.9095 214.3723 0016918 356.4422   3.6665 14.76544025704344
NEE-01 PEGASO           
1 39151U 13018B   26140.32904150  .00001560  00000+0  15395-3 0  9996
2 39151  98.1188 283.5678 0011376 253.7412 106.2555 14.93503212706543
PROBA-V                 
1 39159U 13021A   26141.55145610  .00000049  00000+0  39673-4 0  9999
2 39159  98.3570 121.4753 0003693 193.0698 167.0387 14.23590806677326
ARIRANG-5 (KOMPSAT-5)   
1 39227U 13042A   26141.69576604  .00000510  00000+0  40752-4 0  9997
2 39227  97.6208 328.7687 0002489 192.3071 167.8094 15.04502560699876
GONETS-M 5              
1 39249U 13048A   26141.71195573 -.00000014  00000+0 -17346-3 0  9995
2 39249  82.4840 359.8904 0015645 272.1089  87.8199 12.42891090575592
GONETS-M 7              
1 39251U 13048C   26141.75589300 -.00000032  00000+0 -30093-3 0  9991
2 39251  82.4909   2.7714 0016462 273.3123  86.6073 12.42913831575556
FENGYUN 3C              
1 39260U 13052A   26141.75319501  .00000054  00000+0  48638-4 0  9997
2 39260  98.4967 116.8446 0015863  98.6268 261.6705 14.15748023654824
CASSIOPE                
1 39265U 13055A   26141.70244545  .00025343 -69323-6  28558-3 0  9992
2 39265  80.9138  98.8225 0300175 151.1666 210.6539 15.22997322663634
APRIZESAT 7             
1 39416U 13066A   26141.58764949  .00000605  00000+0  65585-4 0  9998
2 39416  97.7694  95.1938 0034477 300.9931  58.7902 14.91495427677267
ZACUBE-1 (TSHEPISOSAT)  
1 39417U 13066B   26141.34340998  .00003087  00000+0  24286-3 0  9996
2 39417  97.8120 103.5350 0040755 342.8760  17.1086 15.00958035676706
APRIZESAT 8             
1 39425U 13066K   26141.77459678  .00000703  00000+0  82140-4 0  9994
2 39425  97.8208  89.6147 0046395  14.7935 345.4626 14.87587274675742
TRITON-1                
1 39427U 13066M   26141.75495068  .00001531  00000+0  18897-3 0  9994
2 39427  97.8262  52.1640 0089308 321.4568  38.0290 14.81578223670170
