OBJECT_NAME,OBJECT_ID,EPOCH,MEAN_MOTION,ECCENTRICITY,INCLINATION,RA_OF_ASC_NODE,ARG_OF_PERICENTER,MEAN_ANOMALY,EPHEMERIS_TYPE,CLASSIFICATION_TYPE,NORAD_CAT_ID,ELEMENT_SET_NO,REV_AT_EPOCH,BSTAR,MEAN_MOTION_DOT,MEAN_MOTION_DDOT
BEIDOU-2 M4,2012-018B,2026-05-20T04:46:44.019840,1.86229401,.00110325,55.6827,305.0343,279.8130,80.0393,0,U,38251,999,9542,0,-.57E-6,0
ARIRANG-3 (KOMPSAT-3),2012-025B,2026-05-21T18:07:22.666080,14.62179318,.0005052,98.1157,99.6745,182.8158,177.3016,0,U,38338,999,74748,.61083E-4,.261E-5,0
METOP-B,2012-049A,2026-05-21T17:20:16.619712,14.21424484,.0003407,98.6521,193.7472,75.7035,284.4520,0,U,38771,999,70950,.46994E-4,.59E-6,0
SJ-9A,2012-056A,2026-05-21T16:35:45.223296,14.85411698,.0025236,97.6694,114.6058,348.2926,11.7699,0,U,38860,999,69565,.98598E-4,.801E-5,0
COSMOS 2484 (RODNIK-S 6),2013-001C,2026-05-21T17:51:35.773056,12.42938130,.0027547,82.5028,238.3303,92.3829,268.0405,0,U,39059,999,60527,-.18667E-3,-.16E-6,0
SARAL,2013-009A,2026-05-21T17:09:08.618112,14.32848619,.0002231,98.5560,328.6174,35.8270,324.3064,0,U,39086,999,69181,.30943E-4,.41E-6,0
STRAND-1,2013-009E,2026-05-21T11:02:53.585952,14.37145301,.0007711,98.3916,322.3538,317.1880,42.8706,0,U,39090,999,69322,.67402E-4,.158E-5,0
BRITE-AUSTRIA,2013-009F,2026-05-21T11:04:53.469408,14.36530086,.0009416,98.3989,321.5600,325.9302,34.1279,0,U,39091,999,69321,.50168E-4,.105E-5,0
GAOFEN-1,2013-018A,2026-05-21T18:27:41.555808,14.76544025,.0016918,97.9095,214.3723,356.4422,3.6665,0,U,39150,999,70434,.11406E-3,.746E-5,0
NEE-01 PEGASO,2013-018B,2026-05-20T07:53:49.185600,14.93503212,.00113766,98.1188,283.5678,253.7412,106.2555,0,U,39151,999,70654,.15394882E-3,.156E-4,0
PROBA-V,2013-021A,2026-05-21T13:14:05.807040,14.23590806,.0003693,98.3570,121.4753,193.0698,167.0387,0,U,39159,999,67732,.39673E-4,.49E-6,0
ARIRANG-5 (KOMPSAT-5),2013-042A,2026-05-21T16:41:54.185856,15.04502560,.0002489,97.6208,328.7687,192.3071,167.8094,0,U,39227,999,69987,.40752E-4,.51E-5,0
GONETS-M 5,2013-048A,2026-05-21T17:05:12.975072,12.42891090,.0015645,82.4840,359.8904,272.1089,87.8199,0,U,39249,999,57559,-.17346E-3,-.14E-6,0
GONETS-M 7,2013-048C,2026-05-21T18:08:29.155200,12.42913831,.0016462,82.4909,2.7714,273.3123,86.6073,0,U,39251,999,57555,-.30093E-3,-.32E-6,0
FENGYUN 3C,2013-052A,2026-05-21T18:04:36.048864,14.15748023,.0015863,98.4967,116.8446,98.6268,261.6705,0,U,39260,999,65482,.48638E-4,.54E-6,0
CASSIOPE,2013-055A,2026-05-21T16:51:31.286880,15.22997322,.0300175,80.9138,98.8225,151.1666,210.6539,0,U,39265,999,66363,.28558E-3,.25343E-3,-.69323E-6
APRIZESAT 7,2013-066A,2026-05-21T14:06:12.915936,14.91495427,.0034477,97.7694,95.1938,300.9931,58.7902,0,U,39416,999,67726,.65585E-4,.605E-5,0
ZACUBE-1 (TSHEPISOSAT),2013-066B,2026-05-21T08:14:30.622272,15.00958035,.0040755,97.8120,103.5350,342.8760,17.1086,0,U,39417,999,67670,.24286E-3,.3087E-4,0
APRIZESAT 8,2013-066K,2026-05-21T18:35:25.161792,14.87587274,.0046395,97.8208,89.6147,14.7935,345.4626,0,U,39425,999,67574,.8214E-4,.703E-5,0
TRITON-1,2013-066M,2026-05-21T18:07:07.738752,14.81578223,.0089308,97.8262,52.1640,321.4568,38.0290,0,U,39427,999,67017,.18897E-3,.1531E-4,0
